[Satellite]
VERSION=1.1
NAME=ONEWEB Z
NICKNAME=ONEWEB Z
TLE1=1 45154U 20008Z   20067.25001157  .00277285  00000-0  12422-1 0  9998
TLE2=2 45154  87.4067 154.3450 0021439 186.9191  39.5119 15.19821765  5265
STATUS=0
